STARLINK-31685          
1 59578U 24076Q   26068.21099489 -.00001944  00000+0 -61184-4 0  9990
2 59578  43.0015  11.3381 0000191 282.1997  77.8834 15.27574062106435
FLOCK 4G-27             
1 62641U 25009AJ  26068.75406453  .00012587  00000+0  47455-3 0  9991
2 62641  97.3976 150.8631 0000756 322.4974  37.6212 15.27199247 63710
